<?xml version="1.0" encoding="UTF-8"?>
<ndm xmlns:xsi="http://www.w3.org/2001/XMLSchema-instance" xsi:noNamespaceSchemaLocation="https://sanaregistry.org/r/ndmxml_unqualified/ndmxml-2.0.0-master-2.0.xsd">
<omm id="CCSDS_OMM_VERS" version="2.0">
<header><CREATION_DATE/><ORIGINATOR/></header><body><segment><metadata><OBJECT_NAME>ONEWEB-0368</OBJECT_NAME><OBJECT_ID>2021-090R</OBJECT_ID><CENTER_NAME>EARTH</CENTER_NAME><REF_FRAME>TEME</REF_FRAME><TIME_SYSTEM>UTC</TIME_SYSTEM><MEAN_ELEMENT_THEORY>SGP4</MEAN_ELEMENT_THEORY></metadata><data><meanElements><EPOCH>2025-03-30T12:06:25.541856</EPOCH><MEAN_MOTION>13.20771430</MEAN_MOTION><ECCENTRICITY>.0002666</ECCENTRICITY><INCLINATION>87.9336</INCLINATION><RA_OF_ASC_NODE>2.7821</RA_OF_ASC_NODE><ARG_OF_PERICENTER>80.4609</ARG_OF_PERICENTER><MEAN_ANOMALY>279.6825</MEAN_ANOMALY></meanElements><tleParameters><EPHEMERIS_TYPE>0</EPHEMERIS_TYPE><CLASSIFICATION_TYPE>U</CLASSIFICATION_TYPE><NORAD_CAT_ID>49294</NORAD_CAT_ID><ELEMENT_SET_NO>999</ELEMENT_SET_NO><REV_AT_EPOCH>17371</REV_AT_EPOCH><BSTAR>.11547E-3</BSTAR><MEAN_MOTION_DOT>.6E-6</MEAN_MOTION_DOT><MEAN_MOTION_DDOT>0</MEAN_MOTION_DDOT></tleParameters></data></segment></body></omm>
<omm id="CCSDS_OMM_VERS" version="2.0">
<header><CREATION_DATE/><ORIGINATOR/></header><body><segment><metadata><OBJECT_NAME>ONEWEB-0369</OBJECT_NAME><OBJECT_ID>2021-090S</OBJECT_ID><CENTER_NAME>EARTH</CENTER_NAME><REF_FRAME>TEME</REF_FRAME><TIME_SYSTEM>UTC</TIME_SYSTEM><MEAN_ELEMENT_THEORY>SGP4</MEAN_ELEMENT_THEORY></metadata><data><meanElements><EPOCH>2025-03-29T21:29:36.397824</EPOCH><MEAN_MOTION>13.19727685</MEAN_MOTION><ECCENTRICITY>.0001966</ECCENTRICITY><INCLINATION>87.9240</INCLINATION><RA_OF_ASC_NODE>33.2771</RA_OF_ASC_NODE><ARG_OF_PERICENTER>76.9679</ARG_OF_PERICENTER><MEAN_ANOMALY>283.1674</MEAN_ANOMALY></meanElements><tleParameters><EPHEMERIS_TYPE>0</EPHEMERIS_TYPE><CLASSIFICATION_TYPE>U</CLASSIFICATION_TYPE><NORAD_CAT_ID>49295</NORAD_CAT_ID><ELEMENT_SET_NO>999</ELEMENT_SET_NO><REV_AT_EPOCH>16781</REV_AT_EPOCH><BSTAR>.11316E-3</BSTAR><MEAN_MOTION_DOT>.58E-6</MEAN_MOTION_DOT><MEAN_MOTION_DDOT>0</MEAN_MOTION_DDOT></tleParameters></data></segment></body></omm>
<omm id="CCSDS_OMM_VERS" version="2.0">
<header><CREATION_DATE/><ORIGINATOR/></header><body><segment><metadata><OBJECT_NAME>ONEWEB-0370</OBJECT_NAME><OBJECT_ID>2021-090T</OBJECT_ID><CENTER_NAME>EARTH</CENTER_NAME><REF_FRAME>TEME</REF_FRAME><TIME_SYSTEM>UTC</TIME_SYSTEM><MEAN_ELEMENT_THEORY>SGP4</MEAN_ELEMENT_THEORY></metadata><data><meanElements><EPOCH>2025-03-30T05:42:18.880128</EPOCH><MEAN_MOTION>13.20771027</MEAN_MOTION><ECCENTRICITY>.0001506</ECCENTRICITY><INCLINATION>87.9337</INCLINATION><RA_OF_ASC_NODE>2.8072</RA_OF_ASC_NODE><ARG_OF_PERICENTER>74.2410</ARG_OF_PERICENTER><MEAN_ANOMALY>285.8889</MEAN_ANOMALY></meanElements><tleParameters><EPHEMERIS_TYPE>0</EPHEMERIS_TYPE><CLASSIFICATION_TYPE>U</CLASSIFICATION_TYPE><NORAD_CAT_ID>49296</NORAD_CAT_ID><ELEMENT_SET_NO>999</ELEMENT_SET_NO><REV_AT_EPOCH>17256</REV_AT_EPOCH><BSTAR>-.53503E-3</BSTAR><MEAN_MOTION_DOT>-.205E-5</MEAN_MOTION_DOT><MEAN_MOTION_DDOT>0</MEAN_MOTION_DDOT></tleParameters></data></segment></body></omm>
<omm id="CCSDS_OMM_VERS" version="2.0">
<header><CREATION_DATE/><ORIGINATOR/></header><body><segment><metadata><OBJECT_NAME>ONEWEB-0371</OBJECT_NAME><OBJECT_ID>2021-090U</OBJECT_ID><CENTER_NAME>EARTH</CENTER_NAME><REF_FRAME>TEME</REF_FRAME><TIME_SYSTEM>UTC</TIME_SYSTEM><MEAN_ELEMENT_THEORY>SGP4</MEAN_ELEMENT_THEORY></metadata><data><meanElements><EPOCH>2025-03-29T21:40:57.648864</EPOCH><MEAN_MOTION>13.19728893</MEAN_MOTION><ECCENTRICITY>.0001892</ECCENTRICITY><INCLINATION>87.9238</INCLINATION><RA_OF_ASC_NODE>33.2652</RA_OF_ASC_NODE><ARG_OF_PERICENTER>76.6458</ARG_OF_PERICENTER><MEAN_ANOMALY>283.4886</MEAN_ANOMALY></meanElements><tleParameters><EPHEMERIS_TYPE>0</EPHEMERIS_TYPE><CLASSIFICATION_TYPE>U</CLASSIFICATION_TYPE><NORAD_CAT_ID>49297</NORAD_CAT_ID><ELEMENT_SET_NO>999</ELEMENT_SET_NO><REV_AT_EPOCH>16914</REV_AT_EPOCH><BSTAR>.24481E-4</BSTAR><MEAN_MOTION_DOT>.23E-6</MEAN_MOTION_DOT><MEAN_MOTION_DDOT>0</MEAN_MOTION_DDOT></tleParameters></data></segment></body></omm>
<omm id="CCSDS_OMM_VERS" version="2.0">
<header><CREATION_DATE/><ORIGINATOR/></header><body><segment><metadata><OBJECT_NAME>ONEWEB-0372</OBJECT_NAME><OBJECT_ID>2021-090V</OBJECT_ID><CENTER_NAME>EARTH</CENTER_NAME><REF_FRAME>TEME</REF_FRAME><TIME_SYSTEM>UTC</TIME_SYSTEM><MEAN_ELEMENT_THEORY>SGP4</MEAN_ELEMENT_THEORY></metadata><data><meanElements><EPOCH>2025-03-30T05:26:12.509088</EPOCH><MEAN_MOTION>13.20771293</MEAN_MOTION><ECCENTRICITY>.0001953</ECCENTRICITY><INCLINATION>87.9334</INCLINATION><RA_OF_ASC_NODE>2.8187</RA_OF_ASC_NODE><ARG_OF_PERICENTER>75.2964</ARG_OF_PERICENTER><MEAN_ANOMALY>284.8385</MEAN_ANOMALY></meanElements><tleParameters><EPHEMERIS_TYPE>0</EPHEMERIS_TYPE><CLASSIFICATION_TYPE>U</CLASSIFICATION_TYPE><NORAD_CAT_ID>49298</NORAD_CAT_ID><ELEMENT_SET_NO>999</ELEMENT_SET_NO><REV_AT_EPOCH>17253</REV_AT_EPOCH><BSTAR>-.57275E-3</BSTAR><MEAN_MOTION_DOT>-.22E-5</MEAN_MOTION_DOT><MEAN_MOTION_DDOT>0</MEAN_MOTION_DDOT></tleParameters></data></segment></body></omm>
<omm id="CCSDS_OMM_VERS" version="2.0">
<header><CREATION_DATE/><ORIGINATOR/></header><body><segment><metadata><OBJECT_NAME>ONEWEB-0373</OBJECT_NAME><OBJECT_ID>2021-090W</OBJECT_ID><CENTER_NAME>EARTH</CENTER_NAME><REF_FRAME>TEME</REF_FRAME><TIME_SYSTEM>UTC</TIME_SYSTEM><MEAN_ELEMENT_THEORY>SGP4</MEAN_ELEMENT_THEORY></metadata><data><meanElements><EPOCH>2025-03-29T19:10:30.537120</EPOCH><MEAN_MOTION>13.20769887</MEAN_MOTION><ECCENTRICITY>.0002003</ECCENTRICITY><INCLINATION>87.9334</INCLINATION><RA_OF_ASC_NODE>2.9156</RA_OF_ASC_NODE><ARG_OF_PERICENTER>85.2031</ARG_OF_PERICENTER><MEAN_ANOMALY>274.9331</MEAN_ANOMALY></meanElements><tleParameters><EPHEMERIS_TYPE>0</EPHEMERIS_TYPE><CLASSIFICATION_TYPE>U</CLASSIFICATION_TYPE><NORAD_CAT_ID>49299</NORAD_CAT_ID><ELEMENT_SET_NO>999</ELEMENT_SET_NO><REV_AT_EPOCH>17236</REV_AT_EPOCH><BSTAR>.27088E-3</BSTAR><MEAN_MOTION_DOT>.123E-5</MEAN_MOTION_DOT><MEAN_MOTION_DDOT>0</MEAN_MOTION_DDOT></tleParameters></data></segment></body></omm>
<omm id="CCSDS_OMM_VERS" version="2.0">
<header><CREATION_DATE/><ORIGINATOR/></header><body><segment><metadata><OBJECT_NAME>ONEWEB-0374</OBJECT_NAME><OBJECT_ID>2021-090X</OBJECT_ID><CENTER_NAME>EARTH</CENTER_NAME><REF_FRAME>TEME</REF_FRAME><TIME_SYSTEM>UTC</TIME_SYSTEM><MEAN_ELEMENT_THEORY>SGP4</MEAN_ELEMENT_THEORY></metadata><data><meanElements><EPOCH>2025-03-29T19:39:41.087520</EPOCH><MEAN_MOTION>13.14503439</MEAN_MOTION><ECCENTRICITY>.0002321</ECCENTRICITY><INCLINATION>87.9088</INCLINATION><RA_OF_ASC_NODE>18.0654</RA_OF_ASC_NODE><ARG_OF_PERICENTER>88.0104</ARG_OF_PERICENTER><MEAN_ANOMALY>272.1292</MEAN_ANOMALY></meanElements><tleParameters><EPHEMERIS_TYPE>0</EPHEMERIS_TYPE><CLASSIFICATION_TYPE>U</CLASSIFICATION_TYPE><NORAD_CAT_ID>49300</NORAD_CAT_ID><ELEMENT_SET_NO>999</ELEMENT_SET_NO><REV_AT_EPOCH>16918</REV_AT_EPOCH><BSTAR>-.32399E-3</BSTAR><MEAN_MOTION_DOT>-.107E-5</MEAN_MOTION_DOT><MEAN_MOTION_DDOT>0</MEAN_MOTION_DDOT></tleParameters></data></segment></body></omm>
<omm id="CCSDS_OMM_VERS" version="2.0">
<header><CREATION_DATE/><ORIGINATOR/></header><body><segment><metadata><OBJECT_NAME>ONEWEB-0375</OBJECT_NAME><OBJECT_ID>2021-090Y</OBJECT_ID><CENTER_NAME>EARTH</CENTER_NAME><REF_FRAME>TEME</REF_FRAME><TIME_SYSTEM>UTC</TIME_SYSTEM><MEAN_ELEMENT_THEORY>SGP4</MEAN_ELEMENT_THEORY></metadata><data><meanElements><EPOCH>2025-03-29T18:52:20.262432</EPOCH><MEAN_MOTION>13.20771654</MEAN_MOTION><ECCENTRICITY>.0002008</ECCENTRICITY><INCLINATION>87.9333</INCLINATION><RA_OF_ASC_NODE>2.8956</RA_OF_ASC_NODE><ARG_OF_PERICENTER>97.9003</ARG_OF_PERICENTER><MEAN_ANOMALY>262.2358</MEAN_ANOMALY></meanElements><tleParameters><EPHEMERIS_TYPE>0</EPHEMERIS_TYPE><CLASSIFICATION_TYPE>U</CLASSIFICATION_TYPE><NORAD_CAT_ID>49301</NORAD_CAT_ID><ELEMENT_SET_NO>999</ELEMENT_SET_NO><REV_AT_EPOCH>17186</REV_AT_EPOCH><BSTAR>.45597E-3</BSTAR><MEAN_MOTION_DOT>.198E-5</MEAN_MOTION_DOT><MEAN_MOTION_DDOT>0</MEAN_MOTION_DDOT></tleParameters></data></segment></body></omm>
<omm id="CCSDS_OMM_VERS" version="2.0">
<header><CREATION_DATE/><ORIGINATOR/></header><body><segment><metadata><OBJECT_NAME>ONEWEB-0376</OBJECT_NAME><OBJECT_ID>2021-090Z</OBJECT_ID><CENTER_NAME>EARTH</CENTER_NAME><REF_FRAME>TEME</REF_FRAME><TIME_SYSTEM>UTC</TIME_SYSTEM><MEAN_ELEMENT_THEORY>SGP4</MEAN_ELEMENT_THEORY></metadata><data><meanElements><EPOCH>2025-03-30T08:33:45.447264</EPOCH><MEAN_MOTION>13.19728071</MEAN_MOTION><ECCENTRICITY>.0002036</ECCENTRICITY><INCLINATION>87.9233</INCLINATION><RA_OF_ASC_NODE>33.1647</RA_OF_ASC_NODE><ARG_OF_PERICENTER>72.6449</ARG_OF_PERICENTER><MEAN_ANOMALY>287.4906</MEAN_ANOMALY></meanElements><tleParameters><EPHEMERIS_TYPE>0</EPHEMERIS_TYPE><CLASSIFICATION_TYPE>U</CLASSIFICATION_TYPE><NORAD_CAT_ID>49302</NORAD_CAT_ID><ELEMENT_SET_NO>999</ELEMENT_SET_NO><REV_AT_EPOCH>16919</REV_AT_EPOCH><BSTAR>-.23907E-5</BSTAR><MEAN_MOTION_DOT>.12E-6</MEAN_MOTION_DOT><MEAN_MOTION_DDOT>0</MEAN_MOTION_DDOT></tleParameters></data></segment></body></omm>

</ndm>
